{
  "type": "FeatureCollection",
  "features": [
    {
      "type": "Feature",
      "properties": {
        "norad_id": 37919,
        "name": "FENGYUN 1C DEB",
        "group": "fengyun-1c-debris",
        "lat": -59.68411396537821,
        "lon": -66.85661113672873,
        "alt_km": 814.1528218075364,
        "timestamp": "2025-12-05T14:45:15.588584+00:00",
        "meta_object_name": "FENGYUN 1C DEB",
        "meta_object_id": "1999-025ENU",
        "meta_epoch": "2025-12-01T13:25:03.337824",
        "meta_mean_motion": 14.26713739,
        "meta_eccentricity": 0.00500779,
        "meta_inclination": 99.0554,
        "meta_ra_of_asc_node": 273.1218,
        "meta_arg_of_pericenter": 48.0524,
        "meta_mean_anomaly": 312.4907,
        "meta_ephemeris_type": 0,
        "meta_classification_type": "U",
        "meta_norad_cat_id": 37919,
        "meta_element_set_no": 999,
        "meta_rev_at_epoch": 64749,
        "meta_bstar": 0.00057424201,
        "meta_mean_motion_dot": 1.361e-05,
        "meta_mean_motion_ddot": 0,
        "tle_line1": "1 37919U 99025ENU 25335.55906641  .00001361  00000+0  57424-3 0  9993",
        "tle_line2": "2 37919  99.0554 273.1218 0050077  48.0524 312.4907 14.26713739647498"
      },
      "geometry": {
        "type": "Point",
        "coordinates": [
          -66.85661113672873,
          -59.68411396537821
        ]
      }
    },
    {
      "type": "Feature",
      "properties": {
        "norad_id": 37921,
        "name": "FENGYUN 1C DEB",
        "group": "fengyun-1c-debris",
        "lat": -37.24803124911901,
        "lon": 27.787398268424447,
        "alt_km": 972.9041703945177,
        "timestamp": "2025-12-05T14:45:15.588595+00:00",
        "meta_object_name": "FENGYUN 1C DEB",
        "meta_object_id": "1999-025ENW",
        "meta_epoch": "2025-12-04T09:40:37.327584",
        "meta_mean_motion": 13.95147982,
        "meta_eccentricity": 0.0084396,
        "meta_inclination": 99.0234,
        "meta_ra_of_asc_node": 19.6626,
        "meta_arg_of_pericenter": 121.28,
        "meta_mean_anomaly": 239.6661,
        "meta_ephemeris_type": 0,
        "meta_classification_type": "U",
        "meta_norad_cat_id": 37921,
        "meta_element_set_no": 999,
        "meta_rev_at_epoch": 63031,
        "meta_bstar": 0.00052305,
        "meta_mean_motion_dot": 6.84e-06,
        "meta_mean_motion_ddot": 0,
        "tle_line1": "1 37921U 99025ENW 25338.40320981  .00000684  00000+0  52305-3 0  9990",
        "tle_line2": "2 37921  99.0234  19.6626 0084396 121.2800 239.6661 13.95147982630310"
      },
      "geometry": {
        "type": "Point",
        "coordinates": [
          27.787398268424447,
          -37.24803124911901
        ]
      }
    },
    {
      "type": "Feature",
      "properties": {
        "norad_id": 37925,
        "name": "FENGYUN 1C DEB",
        "group": "fengyun-1c-debris",
        "lat": 75.92298976502647,
        "lon": 168.17052844644067,
        "alt_km": 611.1212786825608,
        "timestamp": "2025-12-05T14:45:15.588605+00:00",
        "meta_object_name": "FENGYUN 1C DEB",
        "meta_object_id": "1999-025EPA",
        "meta_epoch": "2025-12-03T08:51:08.944992",
        "meta_mean_motion": 14.79858027,
        "meta_eccentricity": 0.0057842,
        "meta_inclination": 99.0872,
        "meta_ra_of_asc_node": 205.2959,
        "meta_arg_of_pericenter": 11.9768,
        "meta_mean_anomaly": 348.28,
        "meta_ephemeris_type": 0,
        "meta_classification_type": "U",
        "meta_norad_cat_id": 37925,
        "meta_element_set_no": 999,
        "meta_rev_at_epoch": 65544,
        "meta_bstar": 0.0022468503,
        "meta_mean_motion_dot": 0.00017399,
        "meta_mean_motion_ddot": 0,
        "tle_line1": "1 37925U 99025EPA 25337.36885353  .00017399  00000+0  22469-2 0  9995",
        "tle_line2": "2 37925  99.0872 205.2959 0057842  11.9768 348.2800 14.79858027655443"
      },
      "geometry": {
        "type": "Point",
        "coordinates": [
          168.17052844644067,
          75.92298976502647
        ]
      }
    },
    {
      "type": "Feature",
      "properties": {
        "norad_id": 37926,
        "name": "FENGYUN 1C DEB",
        "group": "fengyun-1c-debris",
        "lat": -76.7879755953144,
        "lon": 83.68735005121636,
        "alt_km": 788.3928444075782,
        "timestamp": "2025-12-05T14:45:15.588615+00:00",
        "meta_object_name": "FENGYUN 1C DEB",
        "meta_object_id": "1999-025EPB",
        "meta_epoch": "2025-12-04T16:13:58.164096",
        "meta_mean_motion": 14.24130452,
        "meta_eccentricity": 0.0053525,
        "meta_inclination": 98.7245,
        "meta_ra_of_asc_node": 41.9063,
        "meta_arg_of_pericenter": 244.4038,
        "meta_mean_anomaly": 266.8565,
        "meta_ephemeris_type": 0,
        "meta_classification_type": "U",
        "meta_norad_cat_id": 37926,
        "meta_element_set_no": 999,
        "meta_rev_at_epoch": 74155,
        "meta_bstar": 0.003343,
        "meta_mean_motion_dot": 7.772e-05,
        "meta_mean_motion_ddot": 0,
        "tle_line1": "1 37926U 99025EPB 25338.67636764  .00007772  00000+0  33430-2 0  9995",
        "tle_line2": "2 37926  98.7245  41.9063 0053525 244.4038 266.8565 14.24130452741558"
      },
      "geometry": {
        "type": "Point",
        "coordinates": [
          83.68735005121636,
          -76.7879755953144
        ]
      }
    },
    {
      "type": "Feature",
      "properties": {
        "norad_id": 37927,
        "name": "FENGYUN 1C DEB",
        "group": "fengyun-1c-debris",
        "lat": 64.4497928560092,
        "lon": -38.36357667702642,
        "alt_km": 656.8905467684808,
        "timestamp": "2025-12-05T14:45:15.588626+00:00",
        "meta_object_name": "FENGYUN 1C DEB",
        "meta_object_id": "1999-025EPC",
        "meta_epoch": "2025-11-29T16:11:45.032064",
        "meta_mean_motion": 14.70717717,
        "meta_eccentricity": 0.00076239,
        "meta_inclination": 98.8072,
        "meta_ra_of_asc_node": 116.2969,
        "meta_arg_of_pericenter": 304.8102,
        "meta_mean_anomaly": 55.2384,
        "meta_ephemeris_type": 0,
        "meta_classification_type": "U",
        "meta_norad_cat_id": 37927,
        "meta_element_set_no": 999,
        "meta_rev_at_epoch": 64924,
        "meta_bstar": 0.0038923403,
        "meta_mean_motion_dot": 0.00023758,
        "meta_mean_motion_ddot": 0,
        "tle_line1": "1 37927U 99025EPC 25333.67482676  .00023758  00000+0  38923-2 0  9996",
        "tle_line2": "2 37927  98.8072 116.2969 0007623 304.8102  55.2384 14.70717717649248"
      },
      "geometry": {
        "type": "Point",
        "coordinates": [
          -38.36357667702642,
          64.4497928560092
        ]
      }
    },
    {
      "type": "Feature",
      "properties": {
        "norad_id": 37928,
        "name": "FENGYUN 1C DEB",
        "group": "fengyun-1c-debris",
        "lat": -34.831939754609834,
        "lon": 27.682403592487564,
        "alt_km": 824.0576778945815,
        "timestamp": "2025-12-05T14:45:15.588637+00:00",
        "meta_object_name": "FENGYUN 1C DEB",
        "meta_object_id": "1999-025EPD",
        "meta_epoch": "2025-12-04T09:21:10.746144",
        "meta_mean_motion": 14.37056934,
        "meta_eccentricity": 0.0073334,
        "meta_inclination": 98.9155,
        "meta_ra_of_asc_node": 212.6846,
        "meta_arg_of_pericenter": 57.3741,
        "meta_mean_anomaly": 303.4495,
        "meta_ephemeris_type": 0,
        "meta_classification_type": "U",
        "meta_norad_cat_id": 37928,
        "meta_element_set_no": 999,
        "meta_rev_at_epoch": 81072,
        "meta_bstar": 0.0013776,
        "meta_mean_motion_dot": 4.172e-05,
        "meta_mean_motion_ddot": 0,
        "tle_line1": "1 37928U 99025EPD 25338.38970771  .00004172  00000+0  13776-2 0  9996",
        "tle_line2": "2 37928  98.9155 212.6846 0073334  57.3741 303.4495 14.37056934810722"
      },
      "geometry": {
        "type": "Point",
        "coordinates": [
          27.682403592487564,
          -34.831939754609834
        ]
      }
    },
    {
      "type": "Feature",
      "properties": {
        "norad_id": 38116,
        "name": "FENGYUN 1C DEB",
        "group": "fengyun-1c-debris",
        "lat": 27.966820971285177,
        "lon": 13.820843928481295,
        "alt_km": 872.9725633315165,
        "timestamp": "2025-12-05T14:45:15.588648+00:00",
        "meta_object_name": "FENGYUN 1C DEB",
        "meta_object_id": "1999-025EPM",
        "meta_epoch": "2025-11-28T20:45:55.302624",
        "meta_mean_motion": 14.16973073,
        "meta_eccentricity": 0.0072,
        "meta_inclination": 98.7141,
        "meta_ra_of_asc_node": 11.879,
        "meta_arg_of_pericenter": 186.1596,
        "meta_mean_anomaly": 351.8835,
        "meta_ephemeris_type": 0,
        "meta_classification_type": "U",
        "meta_norad_cat_id": 38116,
        "meta_element_set_no": 999,
        "meta_rev_at_epoch": 64288,
        "meta_bstar": 0.00050837388,
        "meta_mean_motion_dot": 1.004e-05,
        "meta_mean_motion_ddot": 0,
        "tle_line1": "1 38116U 99025EPM 25332.86522341  .00001004  00000+0  50837-3 0  9990",
        "tle_line2": "2 38116  98.7141  11.8790 0072000 186.1596 351.8835 14.16973073642884"
      },
      "geometry": {
        "type": "Point",
        "coordinates": [
          13.820843928481295,
          27.966820971285177
        ]
      }
    }
  ]
}